[{"OBJECT_NAME":"NUSAT-35 (WILLIAMINA)","OBJECT_ID":"2023-001AR","EPOCH":"2026-03-09T22:28:40.425600","MEAN_MOTION":15.3245616,"ECCENTRICITY":0.00136635,"INCLINATION":97.1993,"RA_OF_ASC_NODE":124.278,"ARG_OF_PERICENTER":97.0313,"MEAN_ANOMALY":263.2484,"EPHEMERIS_TYPE":0,"CLASSIFICATION_TYPE":"U","NORAD_CAT_ID":55048,"ELEMENT_SET_NO":999,"REV_AT_EPOCH":17719,"BSTAR":0.00053479647,"MEAN_MOTION_DOT":0.0001675,"MEAN_MOTION_DDOT":0},{"OBJECT_NAME":"STARLINK-34366","OBJECT_ID":"2025-120AB","EPOCH":"2026-03-09T13:02:30.254208","MEAN_MOTION":15.30201519,"ECCENTRICITY":0.0001247,"INCLINATION":53.1577,"RA_OF_ASC_NODE":117.3752,"ARG_OF_PERICENTER":67.9046,"MEAN_ANOMALY":292.2087,"EPHEMERIS_TYPE":0,"CLASSIFICATION_TYPE":"U","NORAD_CAT_ID":64281,"ELEMENT_SET_NO":999,"REV_AT_EPOCH":4384,"BSTAR":0.0011041,"MEAN_MOTION_DOT":0.00032487,"MEAN_MOTION_DDOT":0}]
